[{"OBJECT_NAME":"STARLINK-1679","OBJECT_ID":"2020-070AB","EPOCH":"2026-03-10T00:00:02.999808","MEAN_MOTION":15.5813212,"ECCENTRICITY":0.00035105,"INCLINATION":53.046,"RA_OF_ASC_NODE":122.6633,"ARG_OF_PERICENTER":245.3891,"MEAN_ANOMALY":271.8792,"EPHEMERIS_TYPE":0,"CLASSIFICATION_TYPE":"U","NORAD_CAT_ID":46557,"ELEMENT_SET_NO":999,"REV_AT_EPOCH":592,"BSTAR":0.0024151484,"MEAN_MOTION_DOT":0.00189169,"MEAN_MOTION_DDOT":0},{"OBJECT_NAME":"STARLINK-36719","OBJECT_ID":"2026-022A","EPOCH":"2026-03-09T22:00:01.999584","MEAN_MOTION":15.71518399,"ECCENTRICITY":0.00016054,"INCLINATION":97.2841,"RA_OF_ASC_NODE":102.8873,"ARG_OF_PERICENTER":78.0023,"MEAN_ANOMALY":275.8671,"EPHEMERIS_TYPE":0,"CLASSIFICATION_TYPE":"U","NORAD_CAT_ID":67648,"ELEMENT_SET_NO":999,"REV_AT_EPOCH":590,"BSTAR":-0.016926162,"MEAN_MOTION_DOT":-0.01880654,"MEAN_MOTION_DDOT":0}]
